{
    "links": {
        "self": "http://www.neowsapp.com/rest/v1/neo/3843595?api_key=iIulBulltgU6a56xZRHN4H3l9WmuAYTsLGpBGhQ2"
    },
    "id": "3843595",
    "neo_reference_id": "3843595",
    "name": "(2019 QH1)",
    "designation": "2019 QH1",
    "nasa_jpl_url": "http://ssd.jpl.nasa.gov/sbdb.cgi?sstr=3843595",
    "absolute_magnitude_h": 21.1,
    "estimated_diameter": {
        "kilometers": {
            "estimated_diameter_min": 0.160160338,
            "estimated_diameter_max": 0.358129403
        },
        "meters": {
            "estimated_diameter_min": 160.1603379786,
            "estimated_diameter_max": 358.1294030194
        },
        "miles": {
            "estimated_diameter_min": 0.0995189894,
            "estimated_diameter_max": 0.2225312253
        },
        "feet": {
            "estimated_diameter_min": 525.4604432536,
            "estimated_diameter_max": 1174.9652706022
        }
    },
    "is_potentially_hazardous_asteroid": false,
    "close_approach_data": [
        {
            "close_approach_date": "2019-08-03",
            "close_approach_date_full": "2019-Aug-03 12:20",
            "epoch_date_close_approach": 1564834800000,
            "relative_velocity": {
                "kilometers_per_second": "16.6769715487",
                "kilometers_per_hour": "60037.0975752505",
                "miles_per_hour": "37304.7176572439"
            },
            "miss_distance": {
                "astronomical": "0.369382226",
                "lunar": "143.689685914",
                "kilometers": "55258794.22545862",
                "miles": "34336222.539904156"
            },
            "orbiting_body": "Earth"
        }
    ],
    "orbital_data": {
        "orbit_id": "1",
        "orbit_determination_date": "2019-08-23 21:12:04",
        "first_observation_date": "2019-08-20",
        "last_observation_date": "2019-08-24",
        "data_arc_in_days": 4,
        "observations_used": 15,
        "orbit_uncertainty": "9",
        "minimum_orbit_intersection": ".095839",
        "jupiter_tisserand_invariant": "4.841",
        "epoch_osculation": "2458716.5",
        "eccentricity": ".3279166766778742",
        "semi_major_axis": "1.330746746869639",
        "inclination": "13.13363799503666",
        "ascending_node_longitude": "220.3556035587971",
        "orbital_period": "560.714189610565",
        "perihelion_distance": ".8943726961362544",
        "perihelion_argument": "14.87324411295245",
        "aphelion_distance": "1.767120797603023",
        "perihelion_time": "2458651.063795978770",
        "mean_anomaly": "42.01255092902849",
        "mean_motion": ".6420383266027782",
        "equinox": "J2000",
        "orbit_class": {
            "orbit_class_type": "APO",
            "orbit_class_description": "Near-Earth asteroid orbits which cross the Earth’s orbit similar to that of 1862 Apollo",
            "orbit_class_range": "a (semi-major axis) > 1.0 AU; q (perihelion) < 1.017 AU"
        }
    },
    "is_sentry_object": false
}